NORAD_CAT_ID,OBJECT_NAME,OBJECT_TYPE,EPOCH,MEAN_MOTION,ECCENTRICITY,INCLINATION,RA_OF_ASC_NODE,ARG_OF_PERICENTER,MEAN_ANOMALY,BSTAR,MEAN_MOTION_DOT,MEAN_MOTION_DDOT,TLE_LINE0,TLE_LINE1,TLE_LINE2,SEMIMAJOR_AXIS,PERIOD,APOGEE,PERIGEE,DECAYED
53730.0,STARLINK-4641,PAYLOAD,2024-05-18 13:04:06,15.08847505,0.0001564,53.2186,337.6602,94.3263,265.7908,0.00073919,0.00011498,0.0,0 STARLINK-4641,1 53730U 22107AG  24139.54452229  .00011498  00000-0  73919-3 0  9997,2 53730  53.2186 337.6602 0001564  94.3263 265.7908 15.08847505 94299,6917.857,95.437,540.804,538.64,0.0
53730.0,STARLINK-4641,PAYLOAD,2024-05-18 19:25:38,15.08860578,0.0001254,53.213,336.4731,86.6379,273.4757,0.001388,0.00021883,0.0,0 STARLINK-4641,1 53730U 22107AG  24139.80947519  .00021883  00000-0  13880-2 0  9996,2 53730  53.2130 336.4731 0001254  86.6379 273.4757 15.08860578 94334,6917.817,95.436,540.55,538.815,0.0
53730.0,STARLINK-4641,PAYLOAD,2024-05-19 12:54:53,15.08848334,0.0001333,53.2143,333.2013,81.3728,278.7415,0.00020183,2.926e-05,0.0,0 STARLINK-4641,1 53730U 22107AG  24140.53811570  .00002926  00000-0  20183-3 0  9997,2 53730  53.2143 333.2013 0001333  81.3728 278.7415 15.08848334 95048,6917.855,95.437,540.642,538.798,0.0
53730.0,STARLINK-4641,PAYLOAD,2024-05-19 19:16:26,15.08832534,0.0001157,53.216,332.0142,103.3229,256.7892,-0.00014377,-2.575e-05,0.0,0 STARLINK-4641,1 53730U 22107AG  24140.80308134 -.00002575  00000-0 -14377-3 0  9994,2 53730  53.2160 332.0142 0001157 103.3229 256.7892 15.08832534 94489,6917.903,95.438,540.569,538.968,0.0
53730.0,STARLINK-4641,PAYLOAD,2024-05-20 12:45:41,15.08837164,8.66e-05,53.2149,328.7425,120.5452,239.5626,0.000581,8.97e-05,0.0,0 STARLINK-4641,1 53730U 22107AG  24141.53172648  .00008970  00000-0  58100-3 0  9999,2 53730  53.2149 328.7425 0000866 120.5452 239.5626 15.08837164 95194,6917.889,95.438,540.353,539.155,0.0
53730.0,STARLINK-4641,PAYLOAD,2024-05-20 19:07:13,15.08861204,0.0001198,53.2167,327.5527,113.6963,246.4155,0.0014762,0.00023297,0.0,0 STARLINK-4641,1 53730U 22107AG  24141.79668362  .00023297  00000-0  14762-2 0  9994,2 53730  53.2167 327.5527 0001198 113.6963 246.4155 15.08861204 94637,6917.816,95.436,540.509,538.852,0.0
53730.0,STARLINK-4641,PAYLOAD,2024-05-21 17:22:36,15.08870749,0.0001275,53.2175,323.3917,116.4137,243.6986,0.00065918,0.00010227,0.0,0 STARLINK-4641,1 53730U 22107AG  24142.72403041  .00010227  00000-0  65918-3 0  9998,2 53730  53.2175 323.3917 0001275 116.4137 243.6986 15.08870749 94773,6917.786,95.436,540.533,538.769,0.0
53730.0,STARLINK-4641,PAYLOAD,2024-05-23 20:14:57,15.08840093,8.47e-05,53.2156,313.8726,121.6323,238.4752,0.00041619,6.342e-05,0.0,0 STARLINK-4641,1 53730U 22107AG  24144.84372502  .00006342  00000-0  41619-3 0  9995,2 53730  53.2156 313.8726 0000847 121.6323 238.4752 15.08840093 95091,6917.88,95.438,540.331,539.159,0.0
53730.0,STARLINK-4641,PAYLOAD,2024-05-23 21:50:21,15.08838039,8.92e-05,53.2153,313.5742,107.4645,252.6444,0.00033318,5.018e-05,0.0,0 STARLINK-4641,1 53730U 22107AG  24144.90996564  .00005018  00000-0  33318-3 0  9998,2 53730  53.2153 313.5742 0000892 107.4645 252.6444 15.08838039 95703,6917.886,95.438,540.368,539.134,0.0
53730.0,STARLINK-4641,PAYLOAD,2024-05-24 18:30:21,15.08852296,8.37e-05,53.2143,309.7085,146.6804,213.4241,0.00063279,9.801e-05,0.0,0 STARLINK-4641,1 53730U 22107AG  24145.77108485  .00009801  00000-0  63279-3 0  9994,2 53730  53.2143 309.7085 0000837 146.6804 213.4241 15.08852296 95835,6917.843,95.437,540.287,539.129,0.0
53730.0,STARLINK-4641,PAYLOAD,2024-05-25 18:21:09,15.08843689,9.08e-05,53.2173,305.2472,80.4108,279.6987,0.00028529,4.256e-05,0.0,0 STARLINK-4641,1 53730U 22107AG  24146.76469021  .00004256  00000-0  28529-3 0  9998,2 53730  53.2173 305.2472 0000908  80.4108 279.6987 15.08843689 95387,6917.869,95.437,540.362,539.106,0.0
53730.0,STARLINK-4641,PAYLOAD,2024-05-26 03:53:28,15.08794525,4.95e-05,53.2166,303.4655,163.5574,196.5434,-0.0010303,-0.00016626,0.0,0 STARLINK-4641,1 53730U 22107AG  24147.16214081 -.00016626  00000-0 -10303-2 0  9993,2 53730  53.2166 303.4655 0000495 163.5574 196.5434 15.08794525 95448,6918.019,95.44,540.227,539.542,0.0
53730.0,STARLINK-4641,PAYLOAD,2024-05-26 15:01:10,15.08837266,7.56e-05,53.2168,301.3833,93.4296,266.6783,0.00022216,3.249e-05,0.0,0 STARLINK-4641,1 53730U 22107AG  24147.62581339  .00003249  00000-0  22216-3 0  9999,2 53730  53.2168 301.3833 0000756  93.4296 266.6783 15.08837266 96118,6917.889,95.438,540.277,539.231,0.0
53730.0,STARLINK-4641,PAYLOAD,2024-05-26 19:47:19,15.08842536,9.05e-05,53.2177,300.4884,108.0816,252.0274,0.0003546,5.361e-05,0.0,0 STARLINK-4641,1 53730U 22107AG  24147.82453162  .00005361  00000-0  35460-3 0  9995,2 53730  53.2177 300.4884 0000905 108.0816 252.0274 15.08842536 95547,6917.873,95.437,540.364,539.112,0.0
53730.0,STARLINK-4641,PAYLOAD,2024-05-27 14:51:56,15.088485,0.0001219,53.2178,296.9217,120.0066,240.1048,0.00011324,1.515e-05,0.0,0 STARLINK-4641,1 53730U 22107AG  24148.61940673  .00001515  00000-0  11324-3 0  9991,2 53730  53.2178 296.9217 0001219 120.0066 240.1048 15.08848500 96261,6917.854,95.437,540.563,538.876,0.0
53730.0,STARLINK-4641,PAYLOAD,2024-05-27 16:27:19,15.08848422,0.0001215,53.2177,296.6245,121.7642,238.3469,0.00011334,1.517e-05,0.0,0 STARLINK-4641,1 53730U 22107AG  24148.68564654  .00001517  00000-0  11334-3 0  9992,2 53730  53.2177 296.6245 0001215 121.7642 238.3469 15.08848422 96272,6917.855,95.437,540.56,538.879,0.0
53730.0,STARLINK-4641,PAYLOAD,2024-05-28 13:07:20,15.08846737,0.0001008,53.2178,292.7621,106.7068,253.4035,1.743e-05,-1e-07,0.0,0 STARLINK-4641,1 53730U 22107AG  24149.54676663 -.00000010  00000-0  17430-4 0  9994,2 53730  53.2178 292.7621 0001008 106.7068 253.4035 15.08846737 95805,6917.86,95.437,540.422,539.027,0.0
53730.0,STARLINK-4641,PAYLOAD,2024-05-28 14:42:43,15.08846646,0.000104,53.2181,292.4649,110.9412,249.1692,1.3835e-05,-6.8e-07,0.0,0 STARLINK-4641,1 53730U 22107AG  24149.61300628 -.00000068  00000-0  13835-4 0  9995,2 53730  53.2181 292.4649 0001040 110.9412 249.1692 15.08846646 96410,6917.86,95.437,540.445,539.006,0.0
53730.0,STARLINK-4641,PAYLOAD,2024-05-28 16:18:06,15.08847114,0.0001026,53.2183,292.1679,108.6507,251.4596,2.3333e-05,8.4e-07,0.0,0 STARLINK-4641,1 53730U 22107AG  24149.67924590  .00000084  00000-0  23333-4 0  9992,2 53730  53.2183 292.1679 0001026 108.6507 251.4596 15.08847114 96426,6917.859,95.437,540.433,539.014,0.0
53730.0,STARLINK-4641,PAYLOAD,2024-05-29 12:58:08,15.0884012,0.0001033,53.2189,288.3006,110.0329,250.0775,9.5211e-06,-1.36e-06,0.0,0 STARLINK-4641,1 53730U 22107AG  24150.54037164 -.00000136  00000-0  95211-5 0  9996,2 53730  53.2189 288.3006 0001033 110.0329 250.0775 15.08840120 95951,6917.88,95.438,540.46,539.03,0.0
53730.0,STARLINK-4641,PAYLOAD,2024-05-29 14:33:31,15.08841551,0.0001147,53.2192,288.005,107.7254,252.3864,1.0398e-05,-1.22e-06,0.0,0 STARLINK-4641,1 53730U 22107AG  24150.60661052 -.00000122  00000-0  10398-4 0  9999,2 53730  53.2192 288.0050 0001147 107.7254 252.3864 15.08841551 96568,6917.876,95.437,540.534,538.947,0.0
53730.0,STARLINK-4641,PAYLOAD,2024-05-29 16:08:54,15.08841192,0.0001115,53.2191,287.7075,112.1124,247.9986,4.7936e-05,4.75e-06,0.0,0 STARLINK-4641,1 53730U 22107AG  24150.67284955  .00000475  00000-0  47936-4 0  9997,2 53730  53.2191 287.7075 0001115 112.1124 247.9986 15.08841192 96578,6917.877,95.437,540.513,538.97,0.0
53730.0,STARLINK-4641,PAYLOAD,2024-05-30 14:24:17,15.08846016,9.49e-05,53.2181,283.5419,103.5917,256.5181,0.00011487,1.541e-05,0.0,0 STARLINK-4641,1 53730U 22107AG  24151.60020643  .00001541  00000-0  11487-3 0  9999,2 53730  53.2181 283.5419 0000949 103.5917 256.5181 15.08846016 96710,6917.862,95.437,540.384,539.07,0.0
53730.0,STARLINK-4641,PAYLOAD,2024-05-31 14:15:05,15.08842593,0.0001004,53.218,279.0831,96.9351,263.1756,0.00014138,1.963e-05,0.0,0 STARLINK-4641,1 53730U 22107AG  24152.59380844  .00001963  00000-0  14138-3 0  9994,2 53730  53.2180 279.0831 0001004  96.9351 263.1756 15.08842593 96861,6917.872,95.437,540.432,539.043,0.0
53730.0,STARLINK-4641,PAYLOAD,2024-05-31 17:25:51,15.08844465,9.62e-05,53.2182,278.49,108.2384,251.8713,0.00013193,1.813e-05,0.0,0 STARLINK-4641,1 53730U 22107AG  24152.72628666  .00001813  00000-0  13193-3 0  9990,2 53730  53.2182 278.4900 0000962 108.2384 251.8713 15.08844465 96281,6917.867,95.437,540.397,539.066,0.0
53730.0,STARLINK-4641,PAYLOAD,2024-06-01 01:22:47,15.08835214,0.0001099,53.2171,277.0018,87.4717,272.6401,5.4712e-05,5.83e-06,0.0,0 STARLINK-4641,1 53730U 22107AG  24153.05749497  .00000583  00000-0  54712-4 0  9999,2 53730  53.2171 277.0018 0001099  87.4717 272.6401 15.08835214 96337,6917.895,95.438,540.52,539.0,0.0
53730.0,STARLINK-4641,PAYLOAD,2024-06-01 14:05:52,15.08836578,0.0001063,53.2178,274.6234,87.1127,272.9987,-2.8229e-05,-7.37e-06,0.0,0 STARLINK-4641,1 53730U 22107AG  24153.58741776 -.00000737  00000-0 -28229-4 0  9996,2 53730  53.2178 274.6234 0001063  87.1127 272.9987 15.08836578 97012,6917.891,95.438,540.491,539.02,0.0
53730.0,STARLINK-4641,PAYLOAD,2024-06-02 13:56:39,15.08840548,7.62e-05,53.217,270.1596,100.9647,259.1431,2.9534e-05,1.82e-06,0.0,0 STARLINK-4641,1 53730U 22107AG  24154.58101453  .00000182  00000-0  29534-4 0  9991,2 53730  53.2170 270.1596 0000762 100.9647 259.1431 15.08840548 96564,6917.879,95.438,540.271,539.217,0.0
53730.0,STARLINK-4641,PAYLOAD,2024-06-02 17:07:25,15.08845942,9e-05,53.2178,269.5636,97.8053,262.3042,8.4024e-05,1.05e-05,0.0,0 STARLINK-4641,1 53730U 22107AG  24154.71348994  .00001050  00000-0  84024-4 0  9999,2 53730  53.2178 269.5636 0000900  97.8053 262.3042 15.08845942 97184,6917.862,95.437,540.35,539.105,0.0
53730.0,STARLINK-4641,PAYLOAD,2024-06-03 12:12:03,15.08843177,0.0001317,53.216,265.9975,85.0503,275.0639,0.00017152,2.443e-05,0.0,0 STARLINK-4641,1 53730U 22107AG  24155.50837340  .00002443  00000-0  17152-3 0  9999,2 53730  53.2160 265.9975 0001317  85.0503 275.0639 15.08843177 97308,6917.871,95.437,540.647,538.825,0.0
